{"type": "FeatureCollection", "features": [ {"type": "Feature", "properties": {"norad_id": 34878, "name": "COSMOS 2251 DEB", "group": "cosmos-2251-debris", "lat": -56.9665004842034, "lon": -128.9503353483501, "alt_km": 1276.7448647304918, "timestamp": "2025-12-26T22:28:06.180889+00:00", "meta": {"OBJECT_NAME": "COSMOS 2251 DEB", "OBJECT_ID": "1993-036ACR", "EPOCH": "2025-12-26T01:44:55.738176", "MEAN_MOTION": 13.44208348, "ECCENTRICITY": 0.04356984, "INCLINATION": 73.9645, "RA_OF_ASC_NODE": 26.1695, "ARG_OF_PERICENTER": 7.0883, "MEAN_ANOMALY": 21.5785, "EPHEMERIS_TYPE": 0, "CLASSIFICATION_TYPE": "U", "NORAD_CAT_ID": 34878, "ELEMENT_SET_NO": 999, "REV_AT_EPOCH": 81452, "BSTAR": 0.00070715801, "MEAN_MOTION_DOT": 7.05e-06, "MEAN_MOTION_DDOT": 0}, "tle": {"line1": "1 34878U 93036ACR 25360.07286734  .00000705  00000+0  70716-3 0  9999", "line2": "2 34878  73.9645  26.1695 0435698   7.0883  21.5785 13.44208348814521"}}, "geometry": {"type": "Point", "coordinates": [-128.9503353483501, -56.9665004842034]}}, {"type": "Feature", "properties": {"norad_id": 34882, "name": "COSMOS 2251 DEB", "group": "cosmos-2251-debris", "lat": -61.426765210365296, "lon": 166.76111293282233, "alt_km": 642.6270129365275, "timestamp": "2025-12-26T22:28:06.180899+00:00", "meta": {"OBJECT_NAME": "COSMOS 2251 DEB", "OBJECT_ID": "1993-036ACV", "EPOCH": "2025-12-24T14:54:49.727232", "MEAN_MOTION": 14.61616436, "ECCENTRICITY": 0.00833525, "INCLINATION": 74.0451, "RA_OF_ASC_NODE": 202.874, "ARG_OF_PERICENTER": 327.0403, "MEAN_ANOMALY": 32.5581, "EPHEMERIS_TYPE": 0, "CLASSIFICATION_TYPE": "U", "NORAD_CAT_ID": 34882, "ELEMENT_SET_NO": 999, "REV_AT_EPOCH": 88698, "BSTAR": 0.00012189648, "MEAN_MOTION_DOT": 6.03e-06, "MEAN_MOTION_DDOT": 0}, "tle": {"line1": "1 34882U 93036ACV 25358.62140888  .00000603  00000+0  12190-3 0  9990", "line2": "2 34882  74.0451 202.8740 0083352 327.0403  32.5581 14.61616436886982"}}, "geometry": {"type": "Point", "coordinates": [166.76111293282233, -61.426765210365296]}}, {"type": "Feature", "properties": {"norad_id": 34883, "name": "COSMOS 2251 DEB", "group": "cosmos-2251-debris", "lat": -14.919093273635038, "lon": -139.42506517475695, "alt_km": 662.0314381075168, "timestamp": "2025-12-26T22:28:06.180910+00:00", "meta": {"OBJECT_NAME": "COSMOS 2251 DEB", "OBJECT_ID": "1993-036ACW", "EPOCH": "2025-12-25T12:29:30.541632", "MEAN_MOTION": 14.51859717, "ECCENTRICITY": 0.0094459, "INCLINATION": 74.2013, "RA_OF_ASC_NODE": 38.8875, "ARG_OF_PERICENTER": 221.5013, "MEAN_ANOMALY": 137.8952, "EPHEMERIS_TYPE": 0, "CLASSIFICATION_TYPE": "U", "NORAD_CAT_ID": 34883, "ELEMENT_SET_NO": 999, "REV_AT_EPOCH": 86625, "BSTAR": 0.0033923, "MEAN_MOTION_DOT": 0.00014484, "MEAN_MOTION_DDOT": 0}, "tle": {"line1": "1 34883U 93036ACW 25359.52049238  .00014484  00000+0  33923-2 0  9996", "line2": "2 34883  74.2013  38.8875 0094459 221.5013 137.8952 14.51859717866259"}}, "geometry": {"type": "Point", "coordinates": [-139.42506517475695, -14.919093273635038]}}, {"type": "Feature", "properties": {"norad_id": 34884, "name": "COSMOS 2251 DEB", "group": "cosmos-2251-debris", "lat": -52.29028204524458, "lon": 6.526347773137446, "alt_km": 602.028362295121, "timestamp": "2025-12-26T22:28:06.180921+00:00", "meta": {"OBJECT_NAME": "COSMOS 2251 DEB", "OBJECT_ID": "1993-036ACX", "EPOCH": "2025-12-26T11:58:25.328928", "MEAN_MOTION": 14.90680196, "ECCENTRICITY": 0.0003304, "INCLINATION": 74.0173, "RA_OF_ASC_NODE": 29.1619, "ARG_OF_PERICENTER": 27.1524, "MEAN_ANOMALY": 91.9168, "EPHEMERIS_TYPE": 0, "CLASSIFICATION_TYPE": "U", "NORAD_CAT_ID": 34884, "ELEMENT_SET_NO": 999, "REV_AT_EPOCH": 88010, "BSTAR": 0.0023992, "MEAN_MOTION_DOT": 0.00023583, "MEAN_MOTION_DDOT": 0}, "tle": {"line1": "1 34884U 93036ACX 25360.49890427  .00023583  00000+0  23992-2 0  9994", "line2": "2 34884  74.0173  29.1619 0003304  27.1524  91.9168 14.90680196880105"}}, "geometry": {"type": "Point", "coordinates": [6.526347773137446, -52.29028204524458]}}, {"type": "Feature", "properties": {"norad_id": 34885, "name": "COSMOS 2251 DEB", "group": "cosmos-2251-debris", "lat": 7.372821331369584, "lon": 158.41448123368335, "alt_km": 728.4190672432414, "timestamp": "2025-12-26T22:28:06.180932+00:00", "meta": {"OBJECT_NAME": "COSMOS 2251 DEB", "OBJECT_ID": "1993-036ACY", "EPOCH": "2025-12-25T20:30:09.906912", "MEAN_MOTION": 14.51573289, "ECCENTRICITY": 0.00150484, "INCLINATION": 74.0301, "RA_OF_ASC_NODE": 158.3276, "ARG_OF_PERICENTER": 243.82, "MEAN_ANOMALY": 232.4643, "EPHEMERIS_TYPE": 0, "CLASSIFICATION_TYPE": "U", "NORAD_CAT_ID": 34885, "ELEMENT_SET_NO": 999, "REV_AT_EPOCH": 87669, "BSTAR": 0.00082730584, "MEAN_MOTION_DOT": 3.29e-05, "MEAN_MOTION_DDOT": 0}, "tle": {"line1": "1 34885U 93036ACY 25359.85428133  .00003290  00000+0  82731-3 0  9994", "line2": "2 34885  74.0301 158.3276 0015048 243.8200 232.4643 14.51573289876699"}}, "geometry": {"type": "Point", "coordinates": [158.41448123368335, 7.372821331369584]}}, {"type": "Feature", "properties": {"norad_id": 34886, "name": "COSMOS 2251 DEB", "group": "cosmos-2251-debris", "lat": -73.32988282137022, "lon": 44.1894894482262, "alt_km": 442.56114375302786, "timestamp": "2025-12-26T22:28:06.180942+00:00", "meta": {"OBJECT_NAME": "COSMOS 2251 DEB", "OBJECT_ID": "1993-036ACZ", "EPOCH": "2025-12-26T18:12:01.173024", "MEAN_MOTION": 15.40542585, "ECCENTRICITY": 0.0032059, "INCLINATION": 73.9515, "RA_OF_ASC_NODE": 150.562, "ARG_OF_PERICENTER": 332.3272, "MEAN_ANOMALY": 27.6228, "EPHEMERIS_TYPE": 0, "CLASSIFICATION_TYPE": "U", "NORAD_CAT_ID": 34886, "ELEMENT_SET_NO": 999, "REV_AT_EPOCH": 63214, "BSTAR": 0.0018576, "MEAN_MOTION_DOT": 0.00077584, "MEAN_MOTION_DDOT": 0}, "tle": {"line1": "1 34886U 93036ACZ 25360.75834691  .00077584  00000+0  18576-2 0  9998", "line2": "2 34886  73.9515 150.5620 0032059 332.3272  27.6228 15.40542585632143"}}, "geometry": {"type": "Point", "coordinates": [44.1894894482262, -73.32988282137022]}}, {"type": "Feature", "properties": {"norad_id": 34907, "name": "COSMOS 2251 DEB", "group": "cosmos-2251-debris", "lat": -29.390990280432177, "lon": 7.845678290998128, "alt_km": 395.70667994599717, "timestamp": "2025-12-26T22:28:06.180952+00:00", "meta": {"OBJECT_NAME": "COSMOS 2251 DEB", "OBJECT_ID": "1993-036ADC", "EPOCH": "2025-12-26T00:59:09.943584", "MEAN_MOTION": 15.54798885, "ECCENTRICITY": 0.00149707, "INCLINATION": 73.9657, "RA_OF_ASC_NODE": 19.1552, "ARG_OF_PERICENTER": 322.4289, "MEAN_ANOMALY": 37.5879, "EPHEMERIS_TYPE": 0, "CLASSIFICATION_TYPE": "U", "NORAD_CAT_ID": 34907, "ELEMENT_SET_NO": 999, "REV_AT_EPOCH": 88179, "BSTAR": 0.0076188915, "MEAN_MOTION_DOT": 0.0054544, "MEAN_MOTION_DDOT": 0}, "tle": {"line1": "1 34907U 93036ADC 25360.04108731  .00545440  00000+0  76189-2 0  9998", "line2": "2 34907  73.9657  19.1552 0014970 322.4289  37.5879 15.54798885881798"}}, "geometry": {"type": "Point", "coordinates": [7.845678290998128, -29.390990280432177]}}, {"type": "Feature", "properties": {"norad_id": 34908, "name": "COSMOS 2251 DEB", "group": "cosmos-2251-debris", "lat": 63.337885687565546, "lon": 32.26854181366916, "alt_km": 745.3230733148621, "timestamp": "2025-12-26T22:28:06.180963+00:00", "meta": {"OBJECT_NAME": "COSMOS 2251 DEB", "OBJECT_ID": "1993-036ADD", "EPOCH": "2025-12-24T10:43:39.700992", "MEAN_MOTION": 14.37433526, "ECCENTRICITY": 0.00406595, "INCLINATION": 74.0579, "RA_OF_ASC_NODE": 2.1423, "ARG_OF_PERICENTER": 14.7235, "MEAN_ANOMALY": 137.436, "EPHEMERIS_TYPE": 0, "CLASSIFICATION_TYPE": "U", "NORAD_CAT_ID": 34908, "ELEMENT_SET_NO": 999, "REV_AT_EPOCH": 87447, "BSTAR": 0.0005476007, "MEAN_MOTION_DOT": 1.627e-05, "MEAN_MOTION_DDOT": 0}, "tle": {"line1": "1 34908U 93036ADD 25358.44698728  .00001627  00000+0  54760-3 0  9996", "line2": "2 34908  74.0579   2.1423 0040659  14.7235 137.4360 14.37433526874478"}}, "geometry": {"type": "Point", "coordinates": [32.26854181366916, 63.337885687565546]}}, {"type": "Feature", "properties": {"norad_id": 34909, "name": "COSMOS 2251 DEB", "group": "cosmos-2251-debris", "lat": 66.613499545517, "lon": -172.86019785211892, "alt_km": 612.1750424798738, "timestamp": "2025-12-26T22:28:06.180973+00:00", "meta": {"OBJECT_NAME": "COSMOS 2251 DEB", "OBJECT_ID": "1993-036ADE", "EPOCH": "2025-12-25T19:59:15.179712", "MEAN_MOTION": 14.7793658, "ECCENTRICITY": 0.00836064, "INCLINATION": 74.014, "RA_OF_ASC_NODE": 50.8291, "ARG_OF_PERICENTER": 183.5214, "MEAN_ANOMALY": 176.5384, "EPHEMERIS_TYPE": 0, "CLASSIFICATION_TYPE": "U", "NORAD_CAT_ID": 34909, "ELEMENT_SET_NO": 999, "REV_AT_EPOCH": 67045, "BSTAR": 0.0004989948, "MEAN_MOTION_DOT": 3.776e-05, "MEAN_MOTION_DDOT": 0}, "tle": {"line1": "1 34909U 93036ADE 25359.83281458  .00003776  00000+0  49899-3 0  9993", "line2": "2 34909  74.0140  50.8291 0083606 183.5214 176.5384 14.77936580670451"}}, "geometry": {"type": "Point", "coordinates": [-172.86019785211892, 66.613499545517]}}, {"type": "Feature", "properties": {"norad_id": 34910, "name": "COSMOS 2251 DEB", "group": "cosmos-2251-debris", "lat": 70.09556508487928, "lon": -153.99958837233046, "alt_km": 1117.7096921336715, "timestamp": "2025-12-26T22:28:06.180984+00:00", "meta": {"OBJECT_NAME": "COSMOS 2251 DEB", "OBJECT_ID": "1993-036ADF", "EPOCH": "2025-12-23T22:45:30.280032", "MEAN_MOTION": 13.37707493, "ECCENTRICITY": 0.0467761, "INCLINATION": 73.8761, "RA_OF_ASC_NODE": 83.7364, "ARG_OF_PERICENTER": 200.8485, "MEAN_ANOMALY": 282.4529, "EPHEMERIS_TYPE": 0, "CLASSIFICATION_TYPE": "U", "NORAD_CAT_ID": 34910, "ELEMENT_SET_NO": 999, "REV_AT_EPOCH": 81674, "BSTAR": 0.0010465, "MEAN_MOTION_DOT": 1.013e-05, "MEAN_MOTION_DDOT": 0}, "tle": {"line1": "1 34910U 93036ADF 25357.94826713  .00001013  00000+0  10465-2 0  9992", "line2": "2 34910  73.8761  83.7364 0467761 200.8485 282.4529 13.37707493816742"}}, "geometry": {"type": "Point", "coordinates": [-153.99958837233046, 70.09556508487928]}}]}